NORAD_CAT_ID,OBJECT_NAME,OBJECT_TYPE,EPOCH,MEAN_MOTION,ECCENTRICITY,INCLINATION,RA_OF_ASC_NODE,ARG_OF_PERICENTER,MEAN_ANOMALY,BSTAR,MEAN_MOTION_DOT,MEAN_MOTION_DDOT,TLE_LINE0,TLE_LINE1,TLE_LINE2,SEMIMAJOR_AXIS,PERIOD,APOGEE,PERIGEE,DECAYED
54083.0,STARLINK-5178,PAYLOAD,2023-02-25 13:30:36,15.08841612,0.0001316,53.2178,268.761,83.7414,276.3728,5.1044e-06,-2.07e-06,0.0,0 STARLINK-5178,1 54083U 22136AJ  23056.56292563 -.00000207  00000-0  51044-5 0  9997,2 54083  53.2178 268.7610 0001316  83.7414 276.3728 15.08841612 19692,6917.875,95.437,540.651,538.83,0.0
54083.0,STARLINK-5178,PAYLOAD,2023-02-25 18:16:46,15.08832656,0.0001493,53.2172,267.8682,92.193,267.9233,1.7498e-05,-1e-07,0.0,0 STARLINK-5178,1 54083U 22136AJ  23056.76165021 -.00000010  00000-0  17498-4 0  9993,2 54083  53.2172 267.8682 0001493  92.1930 267.9233 15.08832656 20202,6917.903,95.438,540.801,538.735,0.0
54083.0,STARLINK-5178,PAYLOAD,2023-02-25 19:52:09,15.08839767,0.0001562,53.2187,267.5703,88.6292,271.4879,-2.9452e-05,-7.57e-06,0.0,0 STARLINK-5178,1 54083U 22136AJ  23056.82788852 -.00000757  00000-0 -29452-4 0  9995,2 54083  53.2187 267.5703 0001562  88.6292 271.4879 15.08839767 19739,6917.881,95.438,540.827,538.666,0.0
54083.0,STARLINK-5178,PAYLOAD,2023-02-25 23:02:55,15.08847444,0.0001316,53.2171,266.9743,86.7332,273.3811,1.5209e-05,-4.6e-07,0.0,0 STARLINK-5178,1 54083U 22136AJ  23056.96036108 -.00000046  00000-0  15209-4 0  9995,2 54083  53.2171 266.9743 0001316  86.7332 273.3811 15.08847444 20235,6917.858,95.437,540.633,538.812,0.0
54083.0,STARLINK-5178,PAYLOAD,2023-02-26 13:21:22,15.08854971,0.000123,53.2167,264.298,83.8235,276.2897,6.0013e-05,6.68e-06,0.0,0 STARLINK-5178,1 54083U 22136AJ  23057.55650920  .00000668  00000-0  60013-4 0  9997,2 54083  53.2167 264.2980 0001230  83.8235 276.2897 15.08854971 19843,6917.835,95.437,540.551,538.849,0.0
54083.0,STARLINK-5178,PAYLOAD,2023-02-26 19:42:54,15.08862485,0.0001212,53.2169,263.1086,83.5625,276.5505,4.0941e-05,3.64e-06,0.0,0 STARLINK-5178,1 54083U 22136AJ  23057.82146183  .00000364  00000-0  40941-4 0  9999,2 54083  53.2169 263.1086 0001212  83.5625 276.5505 15.08862485 20367,6917.812,95.436,540.515,538.838,0.0
54083.0,STARLINK-5178,PAYLOAD,2023-02-26 22:53:40,15.08864303,0.0001229,53.2164,262.5134,82.0992,278.014,5.471e-05,5.83e-06,0.0,0 STARLINK-5178,1 54083U 22136AJ  23057.95393821  .00000583  00000-0  54710-4 0  9998,2 54083  53.2164 262.5134 0001229  82.0992 278.0140 15.08864303 19909,6917.806,95.436,540.521,538.821,0.0
54083.0,STARLINK-5178,PAYLOAD,2023-02-27 19:33:42,15.08834596,0.0001001,53.2175,258.6483,87.9756,272.1351,-8.3881e-06,-4.21e-06,0.0,0 STARLINK-5178,1 54083U 22136AJ  23058.81507790 -.00000421  00000-0 -83881-5 0  9991,2 54083  53.2175 258.6483 0001001  87.9756 272.1351 15.08834596 20513,6917.897,95.438,540.454,539.069,0.0
54083.0,STARLINK-5178,PAYLOAD,2023-02-27 22:44:28,15.08839853,0.000118,53.2158,258.0528,84.8686,275.244,-2.073e-05,-6.18e-06,0.0,0 STARLINK-5178,1 54083U 22136AJ  23058.94755309 -.00000618  00000-0 -20730-4 0  9997,2 54083  53.2158 258.0528 0001180  84.8686 275.2440 15.08839853 20530,6917.881,95.438,540.562,538.93,0.0
54083.0,STARLINK-5178,PAYLOAD,2023-02-28 11:27:34,15.0883311,0.000105,53.217,255.674,84.0041,276.1071,-0.00014284,-2.56e-05,0.0,0 STARLINK-5178,1 54083U 22136AJ  23059.47748227 -.00002560  00000-0 -14284-3 0  9991,2 54083  53.2170 255.6740 0001050  84.0041 276.1071 15.08833110 20132,6917.901,95.438,540.493,539.04,0.0
54083.0,STARLINK-5178,PAYLOAD,2023-02-28 19:24:30,15.08833162,0.0001208,53.2171,254.1863,98.9866,261.1263,-0.00023704,-4.058e-05,0.0,0 STARLINK-5178,1 54083U 22136AJ  23059.80868609 -.00004058  00000-0 -23704-3 0  9996,2 54083  53.2171 254.1863 0001208  98.9866 261.1263 15.08833162 20186,6917.901,95.438,540.602,538.931,0.0
54083.0,STARLINK-5178,PAYLOAD,2023-03-01 19:15:16,15.08837181,9.84e-05,53.2169,249.727,79.1891,280.9212,5.7811e-05,6.32e-06,0.0,0 STARLINK-5178,1 54083U 22136AJ  23060.80227926  .00000632  00000-0  57811-4 0  9998,2 54083  53.2169 249.7270 0000984  79.1891 280.9212 15.08837181 20812,6917.889,95.438,540.435,539.073,0.0
54083.0,STARLINK-5178,PAYLOAD,2023-03-01 20:50:39,15.08839674,0.0001088,53.2166,249.4293,77.4264,282.685,7.8366e-05,9.6e-06,0.0,0 STARLINK-5178,1 54083U 22136AJ  23060.86851720  .00000960  00000-0  78366-4 0  9991,2 54083  53.2166 249.4293 0001088  77.4264 282.6850 15.08839674 20346,6917.881,95.438,540.499,538.994,0.0
54083.0,STARLINK-5178,PAYLOAD,2023-03-02 19:06:03,15.08837395,0.0001264,53.2162,245.2662,69.5066,290.6062,0.00017034,2.424e-05,0.0,0 STARLINK-5178,1 54083U 22136AJ  23061.79587899  .00002424  00000-0  17034-3 0  9998,2 54083  53.2162 245.2662 0001264  69.5066 290.6062 15.08837395 20481,6917.888,95.438,540.628,538.879,0.0
54083.0,STARLINK-5178,PAYLOAD,2023-03-03 10:59:55,15.08840292,0.0001216,53.2169,242.2935,73.0074,287.1051,-4.2224e-05,-9.6e-06,0.0,0 STARLINK-5178,1 54083U 22136AJ  23062.45828624 -.00000960  00000-0 -42224-4 0  9991,2 54083  53.2169 242.2935 0001216  73.0074 287.1051 15.08840292 21068,6917.879,95.438,540.586,538.903,0.0
54083.0,STARLINK-5178,PAYLOAD,2023-03-03 18:56:50,15.08846589,0.00011,53.2162,240.8053,70.7804,289.3307,1.407e-05,-6.4e-07,0.0,0 STARLINK-5178,1 54083U 22136AJ  23062.78947911 -.00000064  00000-0  14070-4 0  9990,2 54083  53.2162 240.8053 0001100  70.7804 289.3307 15.08846589 21112,6917.86,95.437,540.486,538.964,0.0
54083.0,STARLINK-5178,PAYLOAD,2023-03-04 04:29:10,15.08840502,0.0001043,53.2157,239.0216,77.6157,282.4952,-4.1999e-06,-3.55e-06,0.0,0 STARLINK-5178,1 54083U 22136AJ  23063.18692227 -.00000355  00000-0 -41999-5 0  9997,2 54083  53.2157 239.0216 0001043  77.6157 282.4952 15.08840502 21175,6917.879,95.438,540.465,539.022,0.0
54083.0,STARLINK-5178,PAYLOAD,2023-03-04 20:23:01,15.08840414,0.000141,53.2181,236.0497,90.6368,269.4785,-4.7054e-05,-1.037e-05,0.0,0 STARLINK-5178,1 54083U 22136AJ  23063.84932591 -.00001037  00000-0 -47054-4 0  9996,2 54083  53.2181 236.0497 0001410  90.6368 269.4785 15.08840414 20795,6917.879,95.438,540.72,538.769,0.0
54083.0,STARLINK-5178,PAYLOAD,2023-03-05 04:19:57,15.08834427,0.0001302,53.2179,234.5609,86.0995,274.0146,-3.974e-05,-9.2e-06,0.0,0 STARLINK-5178,1 54083U 22136AJ  23064.18052917 -.00000920  00000-0 -39740-4 0  9992,2 54083  53.2179 234.5609 0001302  86.0995 274.0146 15.08834427 21325,6917.897,95.438,540.663,538.862,0.0
54083.0,STARLINK-5178,PAYLOAD,2023-03-05 10:41:30,15.08833916,0.0001388,53.2181,233.3719,97.6765,262.4385,-2.546e-05,-6.93e-06,0.0,0 STARLINK-5178,1 54083U 22136AJ  23064.44548980 -.00000693  00000-0 -25460-4 0  9992,2 54083  53.2181 233.3719 0001388  97.6765 262.4385 15.08833916 20882,6917.899,95.438,540.724,538.804,0.0
54083.0,STARLINK-5178,PAYLOAD,2023-03-05 18:38:25,15.08840659,0.0001198,53.217,231.8863,78.8312,281.2814,3.0307e-05,1.95e-06,0.0,0 STARLINK-5178,1 54083U 22136AJ  23064.77668383  .00000195  00000-0  30307-4 0  9999,2 54083  53.2170 231.8863 0001198  78.8312 281.2814 15.08840659 21419,6917.878,95.438,540.572,538.915,0.0
54083.0,STARLINK-5178,PAYLOAD,2023-03-06 20:04:35,15.08848815,0.0001187,53.217,227.1272,90.2633,269.8495,4.7057e-05,4.61e-06,0.0,0 STARLINK-5178,1 54083U 22136AJ  23065.83651718  .00000461  00000-0  47057-4 0  9997,2 54083  53.2170 227.1272 0001187  90.2633 269.8495 15.08848815 21579,6917.853,95.437,540.54,538.897,0.0
54083.0,STARLINK-5178,PAYLOAD,2023-03-07 04:01:31,15.08837813,0.0001114,53.2188,225.6419,87.9119,272.2,1.4621e-05,-5.5e-07,0.0,0 STARLINK-5178,1 54083U 22136AJ  23066.16772435 -.00000055  00000-0  14621-4 0  9995,2 54083  53.2188 225.6419 0001114  87.9119 272.2000 15.08837813 21628,6917.887,95.438,540.523,538.981,0.0
54083.0,STARLINK-5178,PAYLOAD,2023-03-07 18:19:59,15.08842017,0.0001497,53.2156,222.9669,72.8735,287.2421,2.4478e-05,1.02e-06,0.0,0 STARLINK-5178,1 54083U 22136AJ  23066.76388276  .00000102  00000-0  24478-4 0  9990,2 54083  53.2156 222.9669 0001497  72.8735 287.2421 15.08842017 21233,6917.874,95.437,540.775,538.704,0.0
54083.0,STARLINK-5178,PAYLOAD,2023-03-08 16:35:24,15.08832463,0.0002211,53.2148,218.8011,82.3264,277.7979,-7.8107e-05,-1.531e-05,0.0,0 STARLINK-5178,1 54083U 22136AJ  23067.69125629 -.00001531  00000-0 -78107-4 0  9991,2 54083  53.2148 218.8011 0002211  82.3264 277.7979 15.08832463 21851,6917.903,95.438,541.298,538.239,0.0
54083.0,STARLINK-5178,PAYLOAD,2023-03-08 18:10:48,15.0882696,0.0001502,53.2182,218.5051,69.0862,291.0291,-0.00024804,-4.232e-05,0.0,0 STARLINK-5178,1 54083U 22136AJ  23067.75750595 -.00004232  00000-0 -24804-3 0  9999,2 54083  53.2182 218.5051 0001502  69.0862 291.0291 15.08826960 21387,6917.92,95.438,540.824,538.746,0.0
54083.0,STARLINK-5178,PAYLOAD,2023-03-09 16:26:09,15.08856259,0.0001297,53.2204,214.3414,69.3425,290.7706,0.00031717,4.766e-05,0.0,0 STARLINK-5178,1 54083U 22136AJ  23068.68482940  .00004766  00000-0  31717-3 0  9999,2 54083  53.2204 214.3414 0001297  69.3425 290.7706 15.08856259 22009,6917.831,95.437,540.593,538.798,0.0
54083.0,STARLINK-5178,PAYLOAD,2023-03-10 09:55:25,15.08824786,0.0001749,53.2209,211.0727,327.1392,32.9491,0.00015877,2.239e-05,0.0,0 STARLINK-5178,1 54083U 22136AJ  23069.41349194  .00002239  00000-0  15877-3 0  9996,2 54083  53.2209 211.0727 0001749 327.1392  32.9491 15.08824786 22114,6917.927,95.439,541.002,538.582,0.0
54083.0,STARLINK-5178,PAYLOAD,2023-03-10 16:16:58,15.08833872,0.0001178,53.2182,209.8811,61.8112,298.2999,0.00013819,1.912e-05,0.0,0 STARLINK-5178,1 54083U 22136AJ  23069.67844949  .00001912  00000-0  13819-3 0  9993,2 54083  53.2182 209.8811 0001178  61.8112 298.2999 15.08833872 22151,6917.899,95.438,540.579,538.949,0.0
54083.0,STARLINK-5178,PAYLOAD,2023-03-11 01:49:16,15.08840913,0.0001007,53.2164,208.0953,50.8534,309.2547,2.592e-05,1.25e-06,0.0,0 STARLINK-5178,1 54083U 22136AJ  23070.07588869  .00000125  00000-0  25920-4 0  9997,2 54083  53.2164 208.0953 0001007  50.8534 309.2547 15.08840913 21735,6917.878,95.437,540.439,539.046,0.0
